{"type": "FeatureCollection", "features": [ {"type": "Feature", "properties": {"norad_id": 43648, "name": "BEIDOU-3 M15 (C34)", "group": "gnss", "lat": 48.314154126255936, "lon": 0.5101161224655228, "alt_km": 21515.655129546933, "timestamp": "2025-12-09T16:56:36.818496+00:00", "meta": {"OBJECT_NAME": "BEIDOU-3 M15 (C34)", "OBJECT_ID": "2018-078B", "EPOCH": "2025-12-09T01:39:46.541952", "MEAN_MOTION": 1.8623188, "ECCENTRICITY": 0.0003597, "INCLINATION": 54.2613, "RA_OF_ASC_NODE": 306.6502, "ARG_OF_PERICENTER": 17.7285, "MEAN_ANOMALY": 342.2733, "EPHEMERIS_TYPE": 0, "CLASSIFICATION_TYPE": "U", "NORAD_CAT_ID": 43648, "ELEMENT_SET_NO": 999, "REV_AT_EPOCH": 4863, "BSTAR": 0, "MEAN_MOTION_DOT": -7.5e-07, "MEAN_MOTION_DDOT": 0}, "tle": {"line1": "1 43648U 18078B   25343.06928868 -.00000075  00000+0  00000+0 0  9994", "line2": "2 43648  54.2613 306.6502 0003597  17.7285 342.2733  1.86231880 48636"}}, "geometry": {"type": "Point", "coordinates": [0.5101161224655228, 48.314154126255936]}}, {"type": "Feature", "properties": {"norad_id": 43683, "name": "BEIDOU-3 G1 (C59)", "group": "gnss", "lat": 0.4623900313552384, "lon": 112.89222936058596, "alt_km": 35781.55996003593, "timestamp": "2025-12-09T16:56:36.818508+00:00", "meta": {"OBJECT_NAME": "BEIDOU-3 G1 (C59)", "OBJECT_ID": "2018-085A", "EPOCH": "2025-12-08T17:41:39.231168", "MEAN_MOTION": 1.00272068, "ECCENTRICITY": 0.0001779, "INCLINATION": 2.5974, "RA_OF_ASC_NODE": 103.0581, "ARG_OF_PERICENTER": 62.9114, "MEAN_ANOMALY": 317.2543, "EPHEMERIS_TYPE": 0, "CLASSIFICATION_TYPE": "U", "NORAD_CAT_ID": 43683, "ELEMENT_SET_NO": 999, "REV_AT_EPOCH": 2615, "BSTAR": 0, "MEAN_MOTION_DOT": -2.75e-06, "MEAN_MOTION_DDOT": 0}, "tle": {"line1": "1 43683U 18085A   25342.73725962 -.00000275  00000+0  00000+0 0  9996", "line2": "2 43683   2.5974 103.0581 0001779  62.9114 317.2543  1.00272068 26153"}}, "geometry": {"type": "Point", "coordinates": [112.89222936058596, 0.4623900313552384]}}, {"type": "Feature", "properties": {"norad_id": 43687, "name": "COSMOS 2529 (757)", "group": "gnss", "lat": 62.78660310448896, "lon": -91.47030450960322, "alt_km": 19141.59693684635, "timestamp": "2025-12-09T16:56:36.818520+00:00", "meta": {"OBJECT_NAME": "COSMOS 2529 (757)", "OBJECT_ID": "2018-086A", "EPOCH": "2025-12-09T03:09:05.938272", "MEAN_MOTION": 2.13101866, "ECCENTRICITY": 0.0007294, "INCLINATION": 64.2918, "RA_OF_ASC_NODE": 199.0103, "ARG_OF_PERICENTER": 254.195, "MEAN_ANOMALY": 105.7985, "EPHEMERIS_TYPE": 0, "CLASSIFICATION_TYPE": "U", "NORAD_CAT_ID": 43687, "ELEMENT_SET_NO": 999, "REV_AT_EPOCH": 5523, "BSTAR": 0, "MEAN_MOTION_DOT": 4.4e-07, "MEAN_MOTION_DDOT": 0}, "tle": {"line1": "1 43687U 18086A   25343.13131873  .00000044  00000+0  00000+0 0  9991", "line2": "2 43687  64.2918 199.0103 0007294 254.1950 105.7985  2.13101866 55239"}}, "geometry": {"type": "Point", "coordinates": [-91.47030450960322, 62.78660310448896]}}, {"type": "Feature", "properties": {"norad_id": 43706, "name": "BEIDOU-3 M17 (C36)", "group": "gnss", "lat": -30.9803953103343, "lon": 163.02015934556488, "alt_km": 21515.203244621236, "timestamp": "2025-12-09T16:56:36.818531+00:00", "meta": {"OBJECT_NAME": "BEIDOU-3 M17 (C36)", "OBJECT_ID": "2018-093A", "EPOCH": "2025-12-07T14:48:21.849120", "MEAN_MOTION": 1.86228285, "ECCENTRICITY": 0.0006281, "INCLINATION": 54.1726, "RA_OF_ASC_NODE": 188.7957, "ARG_OF_PERICENTER": 306.8876, "MEAN_ANOMALY": 53.1241, "EPHEMERIS_TYPE": 0, "CLASSIFICATION_TYPE": "U", "NORAD_CAT_ID": 43706, "ELEMENT_SET_NO": 999, "REV_AT_EPOCH": 4797, "BSTAR": 0, "MEAN_MOTION_DOT": 5.7e-07, "MEAN_MOTION_DDOT": 0}, "tle": {"line1": "1 43706U 18093A   25341.61691955  .00000057  00000+0  00000+0 0  9998", "line2": "2 43706  54.1726 188.7957 0006281 306.8876  53.1241  1.86228285 47972"}}, "geometry": {"type": "Point", "coordinates": [163.02015934556488, -30.9803953103343]}}, {"type": "Feature", "properties": {"norad_id": 43707, "name": "BEIDOU-3 M18 (C37)", "group": "gnss", "lat": 40.68332611357431, "lon": -132.8768940756157, "alt_km": 21515.223461525315, "timestamp": "2025-12-09T16:56:36.818542+00:00", "meta": {"OBJECT_NAME": "BEIDOU-3 M18 (C37)", "OBJECT_ID": "2018-093B", "EPOCH": "2025-12-09T02:08:32.306784", "MEAN_MOTION": 1.86226655, "ECCENTRICITY": 0.0006293, "INCLINATION": 54.1729, "RA_OF_ASC_NODE": 188.7377, "ARG_OF_PERICENTER": 351.6926, "MEAN_ANOMALY": 8.358, "EPHEMERIS_TYPE": 0, "CLASSIFICATION_TYPE": "U", "NORAD_CAT_ID": 43707, "ELEMENT_SET_NO": 999, "REV_AT_EPOCH": 4799, "BSTAR": 0, "MEAN_MOTION_DOT": 4.9e-07, "MEAN_MOTION_DDOT": 0}, "tle": {"line1": "1 43707U 18093B   25343.08926281  .00000049  00000+0  00000+0 0  9996", "line2": "2 43707  54.1729 188.7377 0006293 351.6926   8.3580  1.86226655 47998"}}, "geometry": {"type": "Point", "coordinates": [-132.8768940756157, 40.68332611357431]}}, {"type": "Feature", "properties": {"norad_id": 43873, "name": "GPS BIII-1  (PRN 04)", "group": "gnss", "lat": 49.58704945989801, "lon": -133.9349013447838, "alt_km": 20163.354398966636, "timestamp": "2025-12-09T16:56:36.818556+00:00", "meta": {"OBJECT_NAME": "GPS BIII-1  (PRN 04)", "OBJECT_ID": "2018-109A", "EPOCH": "2025-12-08T13:41:32.071776", "MEAN_MOTION": 2.00553358, "ECCENTRICITY": 0.003721, "INCLINATION": 55.5654, "RA_OF_ASC_NODE": 99.7112, "ARG_OF_PERICENTER": 194.8122, "MEAN_ANOMALY": 178.3596, "EPHEMERIS_TYPE": 0, "CLASSIFICATION_TYPE": "U", "NORAD_CAT_ID": 43873, "ELEMENT_SET_NO": 999, "REV_AT_EPOCH": 5125, "BSTAR": 0, "MEAN_MOTION_DOT": 6e-08, "MEAN_MOTION_DDOT": 0}, "tle": {"line1": "1 43873U 18109A   25342.57051009  .00000006  00000+0  00000+0 0  9991", "line2": "2 43873  55.5654  99.7112 0037210 194.8122 178.3596  2.00553358 51259"}}, "geometry": {"type": "Point", "coordinates": [-133.9349013447838, 49.58704945989801]}}, {"type": "Feature", "properties": {"norad_id": 44204, "name": "BEIDOU-3 IGSO-1 (C38)", "group": "gnss", "lat": 38.22699374270196, "lon": 68.57634558902082, "alt_km": 35902.9132604704, "timestamp": "2025-12-09T16:56:36.818570+00:00", "meta": {"OBJECT_NAME": "BEIDOU-3 IGSO-1 (C38)", "OBJECT_ID": "2019-023A", "EPOCH": "2025-11-19T14:15:02.708640", "MEAN_MOTION": 1.00252177, "ECCENTRICITY": 0.0026966, "INCLINATION": 58.4003, "RA_OF_ASC_NODE": 39.8168, "ARG_OF_PERICENTER": 221.2202, "MEAN_ANOMALY": 126.9723, "EPHEMERIS_TYPE": 0, "CLASSIFICATION_TYPE": "U", "NORAD_CAT_ID": 44204, "ELEMENT_SET_NO": 999, "REV_AT_EPOCH": 510, "BSTAR": 0, "MEAN_MOTION_DOT": -2.26e-06, "MEAN_MOTION_DDOT": 0}, "tle": {"line1": "1 44204U 19023A   25323.59378135 -.00000226  00000+0  00000+0 0  9994", "line2": "2 44204  58.4003  39.8168 0026966 221.2202 126.9723  1.00252177  5102"}}, "geometry": {"type": "Point", "coordinates": [68.57634558902082, 38.22699374270196]}}, {"type": "Feature", "properties": {"norad_id": 44231, "name": "BEIDOU-2 G8 (C01)", "group": "gnss", "lat": 1.1377976449356841, "lon": 117.41366030357541, "alt_km": 35817.41168236678, "timestamp": "2025-12-09T16:56:36.818586+00:00", "meta": {"OBJECT_NAME": "BEIDOU-2 G8 (C01)", "OBJECT_ID": "2019-027A", "EPOCH": "2025-12-09T13:48:15.723072", "MEAN_MOTION": 1.00268427, "ECCENTRICITY": 0.000856, "INCLINATION": 1.6538, "RA_OF_ASC_NODE": 74.6775, "ARG_OF_PERICENTER": 254.8433, "MEAN_ANOMALY": 100.6395, "EPHEMERIS_TYPE": 0, "CLASSIFICATION_TYPE": "U", "NORAD_CAT_ID": 44231, "ELEMENT_SET_NO": 999, "REV_AT_EPOCH": 2417, "BSTAR": 0, "MEAN_MOTION_DOT": -2.45e-06, "MEAN_MOTION_DDOT": 0}, "tle": {"line1": "1 44231U 19027A   25343.57518198 -.00000245  00000+0  00000+0 0  9994", "line2": "2 44231   1.6538  74.6775 0008560 254.8433 100.6395  1.00268427 24171"}}, "geometry": {"type": "Point", "coordinates": [117.41366030357541, 1.1377976449356841]}}, {"type": "Feature", "properties": {"norad_id": 44299, "name": "COSMOS 2534 (758)", "group": "gnss", "lat": -31.27425096604895, "lon": 35.95680532781881, "alt_km": 19125.544809064162, "timestamp": "2025-12-09T16:56:36.818601+00:00", "meta": {"OBJECT_NAME": "COSMOS 2534 (758)", "OBJECT_ID": "2019-030A", "EPOCH": "2025-12-09T05:29:56.087232", "MEAN_MOTION": 2.13102103, "ECCENTRICITY": 0.00090056, "INCLINATION": 64.3653, "RA_OF_ASC_NODE": 199.0114, "ARG_OF_PERICENTER": 283.3894, "MEAN_ANOMALY": 286.0531, "EPHEMERIS_TYPE": 0, "CLASSIFICATION_TYPE": "U", "NORAD_CAT_ID": 44299, "ELEMENT_SET_NO": 999, "REV_AT_EPOCH": 5087, "BSTAR": 0, "MEAN_MOTION_DOT": 4.4e-07, "MEAN_MOTION_DDOT": 0}, "tle": {"line1": "1 44299U 19030A   25343.22912138  .00000044  00000+0  00000+0 0  9992", "line2": "2 44299  64.3653 199.0114 0009005 283.3894 286.0531  2.13102103 50871"}}, "geometry": {"type": "Point", "coordinates": [35.95680532781881, -31.27425096604895]}}, {"type": "Feature", "properties": {"norad_id": 44337, "name": "BEIDOU-3 IGSO-2 (C39)", "group": "gnss", "lat": -49.42051548388258, "lon": 106.1974400234864, "alt_km": 35791.44644129735, "timestamp": "2025-12-09T16:56:36.818613+00:00", "meta": {"OBJECT_NAME": "BEIDOU-3 IGSO-2 (C39)", "OBJECT_ID": "2019-035A", "EPOCH": "2025-12-08T21:18:38.600064", "MEAN_MOTION": 1.00272014, "ECCENTRICITY": 0.0037301, "INCLINATION": 55.2241, "RA_OF_ASC_NODE": 160.5341, "ARG_OF_PERICENTER": 202.3504, "MEAN_ANOMALY": 154.1975, "EPHEMERIS_TYPE": 0, "CLASSIFICATION_TYPE": "U", "NORAD_CAT_ID": 44337, "ELEMENT_SET_NO": 999, "REV_AT_EPOCH": 2375, "BSTAR": 0, "MEAN_MOTION_DOT": -7.9e-07, "MEAN_MOTION_DDOT": 0}, "tle": {"line1": "1 44337U 19035A   25342.88794676 -.00000079  00000+0  00000+0 0  9995", "line2": "2 44337  55.2241 160.5341 0037301 202.3504 154.1975  1.00272014 23758"}}, "geometry": {"type": "Point", "coordinates": [106.1974400234864, -49.42051548388258]}}]}